{
    "links": {
        "self": "http://www.neowsapp.com/rest/v1/neo/54075582?api_key=iIulBulltgU6a56xZRHN4H3l9WmuAYTsLGpBGhQ2"
    },
    "id": "54075582",
    "neo_reference_id": "54075582",
    "name": "(2020 TV8)",
    "designation": "2020 TV8",
    "nasa_jpl_url": "http://ssd.jpl.nasa.gov/sbdb.cgi?sstr=54075582",
    "absolute_magnitude_h": 20.78,
    "estimated_diameter": {
        "kilometers": {
            "estimated_diameter_min": 0.185590173,
            "estimated_diameter_max": 0.4149922428
        },
        "meters": {
            "estimated_diameter_min": 185.5901730037,
            "estimated_diameter_max": 414.9922427922
        },
        "miles": {
            "estimated_diameter_min": 0.1153203514,
            "estimated_diameter_max": 0.2578641449
        },
        "feet": {
            "estimated_diameter_min": 608.8916631975,
            "estimated_diameter_max": 1361.5231498425
        }
    },
    "is_potentially_hazardous_asteroid": false,
    "close_approach_data": [
        {
            "close_approach_date": "1919-06-10",
            "close_approach_date_full": "1919-Jun-10 23:24",
            "epoch_date_close_approach": -1595550960000,
            "relative_velocity": {
                "kilometers_per_second": "16.8165656338",
                "kilometers_per_hour": "60539.6362817012",
                "miles_per_hour": "37616.9756662604"
            },
            "miss_distance": {
                "astronomical": "0.4642593153",
                "lunar": "180.5968736517",
                "kilometers": "69452204.696538411",
                "miles": "43155598.8467196318"
            },
            "orbiting_body": "Earth"
        },
        {
            "close_approach_date": "1925-08-17",
            "close_approach_date_full": "1925-Aug-17 02:21",
            "epoch_date_close_approach": -1400362740000,
            "relative_velocity": {
                "kilometers_per_second": "11.8529147381",
                "kilometers_per_hour": "42670.4930572709",
                "miles_per_hour": "26513.7849777248"
            },
            "miss_distance": {
                "astronomical": "0.3391557316",
                "lunar": "131.9315795924",
                "kilometers": "50736975.045651692",
                "miles": "31526494.3903976696"
            },
            "orbiting_body": "Earth"
        },
        {
            "close_approach_date": "2026-07-02",
            "close_approach_date_full": "2026-Jul-02 14:16",
            "epoch_date_close_approach": 1783001760000,
            "relative_velocity": {
                "kilometers_per_second": "7.7918386038",
                "kilometers_per_hour": "28050.6189737606",
                "miles_per_hour": "17429.5637728903"
            },
            "miss_distance": {
                "astronomical": "0.1721225528",
                "lunar": "66.9556730392",
                "kilometers": "25749167.277842536",
                "miles": "15999790.6263015568"
            },
            "orbiting_body": "Earth"
        },
        {
            "close_approach_date": "2029-08-13",
            "close_approach_date_full": "2029-Aug-13 16:25",
            "epoch_date_close_approach": 1881332700000,
            "relative_velocity": {
                "kilometers_per_second": "9.8526000259",
                "kilometers_per_hour": "35469.360093108",
                "miles_per_hour": "22039.2809978537"
            },
            "miss_distance": {
                "astronomical": "0.2750460459",
                "lunar": "106.9929118551",
                "kilometers": "41146302.618562233",
                "miles": "25567126.8837474954"
            },
            "orbiting_body": "Earth"
        }
    ],
    "orbital_data": {
        "orbit_id": "2",
        "orbit_determination_date": "2020-11-12 05:42:54",
        "first_observation_date": "2020-10-15",
        "last_observation_date": "2020-11-12",
        "data_arc_in_days": 28,
        "observations_used": 26,
        "orbit_uncertainty": "6",
        "minimum_orbit_intersection": ".132681",
        "jupiter_tisserand_invariant": "3.587",
        "epoch_osculation": "2459000.5",
        "eccentricity": ".4694790876637723",
        "semi_major_axis": "2.108157599107829",
        "inclination": "5.615713426688057",
        "ascending_node_longitude": "242.2702817164337",
        "orbital_period": "1118.028921614312",
        "perihelion_distance": "1.118421692827237",
        "perihelion_argument": "58.08389631560807",
        "aphelion_distance": "3.097893505388421",
        "perihelion_time": "2459002.186507654199",
        "mean_anomaly": "359.4569525494608",
        "mean_motion": ".3219952481016314",
        "equinox": "J2000",
        "orbit_class": {
            "orbit_class_type": "AMO",
            "orbit_class_description": "Near-Earth asteroid orbits similar to that of 1221 Amor",
            "orbit_class_range": "1.017 AU < q (perihelion) < 1.3 AU"
        }
    },
    "is_sentry_object": false
}